[{"OBJECT_NAME":"ORBCOMM FM19","OBJECT_ID":"1998-046C","EPOCH":"2026-03-09T00:07:17.563296","MEAN_MOTION":14.39270127,"ECCENTRICITY":0.00018158,"INCLINATION":44.9959,"RA_OF_ASC_NODE":359.683,"ARG_OF_PERICENTER":187.4459,"MEAN_ANOMALY":272.3467,"EPHEMERIS_TYPE":0,"CLASSIFICATION_TYPE":"U","NORAD_CAT_ID":25415,"ELEMENT_SET_NO":999,"REV_AT_EPOCH":44234,"BSTAR":0.00058926699,"MEAN_MOTION_DOT":1.703e-5,"MEAN_MOTION_DDOT":0},{"OBJECT_NAME":"CZ-2D R\/B","OBJECT_ID":"2022-142B","EPOCH":"2026-03-09T17:08:24.751968","MEAN_MOTION":14.34339623,"ECCENTRICITY":0.00299829,"INCLINATION":59.9002,"RA_OF_ASC_NODE":224.8765,"ARG_OF_PERICENTER":166.8231,"MEAN_ANOMALY":193.3595,"EPHEMERIS_TYPE":0,"CLASSIFICATION_TYPE":"U","NORAD_CAT_ID":54215,"ELEMENT_SET_NO":999,"REV_AT_EPOCH":17607,"BSTAR":0.00011614441,"MEAN_MOTION_DOT":1.9e-6,"MEAN_MOTION_DDOT":0}]
